*******************************************************************************
JPL/HORIZONS                 286 Iclea (A889 PB)           2023-Sep-04 11:05:28
Rec #:     286 (+COV) Soln.date: 2023-Aug-23_03:09:16   # obs: 4570 (1898-2023)
 
IAU76/J2000 helio. ecliptic osc. elements (au, days, deg., period=Julian yrs):
 
  EPOCH=  2457273.5 ! 2015-Sep-08.00 (TDB)         Residual RMS= .26676
   EC= .02913964836317144  QR= 3.102694385258525   TP= 2457316.6854457138
   OM= 149.1178003457982   W=  213.884061123018    IN= 17.90133535889426
   A= 3.195819439971482    MA= 352.5497966143799   ADIST= 3.288944494684438
   PER= 5.71323            N= .172516533           ANGMOM= .030738884
   DAN= 3.27226            DDN= 3.11769            L= 1.6986527
   B= -9.8673693           MOID= 2.10309005        TP= 2015-Oct-21.1854457138
 
Asteroid physical parameters (km, seconds, rotational period in hours):
   GM= n.a.                RAD= 47.15              ROTPER= 15.365
   H= 9.09                 G= .150                 B-V= .690
                           ALBEDO= .0508           STYP= Ch

ASTEROID comments: 
1: soln ref.= JPL#60, OCC=0
2: source=ORB
*******************************************************************************


*******************************************************************************
Ephemeris / API_USER Mon Sep  4 11:05:28 2023 Pasadena, USA      / Horizons
*******************************************************************************
Target body name: 286 Iclea (A889 PB)             {source: JPL#60}
Center body name: Solar System Barycenter (0)     {source: DE441}
Center-site name: BODY CENTER
*******************************************************************************
Start time      : A.D. 2023-Aug-12 00:00:00.0000 TDB
Stop  time      : A.D. 2023-Aug-13 00:00:00.0000 TDB
Step-size       : 2880 minutes
*******************************************************************************
Center geodetic : 0.0, 0.0, 0.0                   {E-lon(deg),Lat(deg),Alt(km)}
Center cylindric: 0.0, 0.0, 0.0                   {E-lon(deg),Dxy(km),Dz(km)}
Center radii    : (undefined)
Small perturbers: Yes                             {source: SB441-N16}
Output units    : KM-S
Calendar mode   : Mixed Julian/Gregorian
Output type     : GEOMETRIC cartesian states
Output format   : 2 (position and velocity)
Reference frame : Ecliptic of J2000.0
*******************************************************************************
Initial IAU76/J2000 heliocentric ecliptic osculating elements (au, days, deg.):
  EPOCH=  2457273.5 ! 2015-Sep-08.00 (TDB)         Residual RMS= .26676        
   EC= .02913964836317144  QR= 3.102694385258525   TP= 2457316.6854457138      
   OM= 149.1178003457982   W=  213.884061123018    IN= 17.90133535889426       
  Equivalent ICRF heliocentric cartesian coordinates (au, au/d):
   X= 3.058408760422253E+00  Y=-1.286751870335118E-01  Z=-5.113375069118413E-01
  VX= 5.863524428184317E-04 VY= 9.804808726677267E-03 VZ= 1.273754553796671E-03
Asteroid physical parameters (km, seconds, rotational period in hours):        
   GM= n.a.                RAD= 47.15              ROTPER= 15.365              
   H= 9.09                 G= .150                 B-V= .690                   
                           ALBEDO= .0508           STYP= Ch                    
*******************************************************************************
JDTDB
   X     Y     Z
   VX    VY    VZ
*******************************************************************************
$$SOE
2460168.500000000 = A.D. 2023-Aug-12 00:00:00.0000 TDB 
 X =-3.591959797002258E+08 Y = 3.269920359445229E+08 Z =-3.093487059036979E+07
 VX=-1.096062860197982E+01 VY=-1.114393482232429E+01 VZ= 4.919194649047498E+00
$$EOE
*******************************************************************************
 
TIME

  Barycentric Dynamical Time ("TDB" or T_eph) output was requested. This
continuous coordinate time is equivalent to the relativistic proper time
of a clock at rest in a reference frame co-moving with the solar system
barycenter but outside the system's gravity well. It is the independent
variable in the solar system relativistic equations of motion.

  TDB runs at a uniform rate of one SI second per second and is independent
of irregularities in Earth's rotation.
 
CALENDAR SYSTEM

  Mixed calendar mode was active such that calendar dates after AD 1582-Oct-15
(if any) are in the modern Gregorian system. Dates prior to 1582-Oct-5 (if any)
are in the Julian calendar system, which is automatically extended for dates
prior to its adoption on 45-Jan-1 BC.  The Julian calendar is useful for
matching historical dates. The Gregorian calendar more accurately corresponds
to the Earth's orbital motion and seasons. A "Gregorian-only" calendar mode is
available if such physical events are the primary interest.

REFERENCE FRAME AND COORDINATES

  Ecliptic at the standard reference epoch

    Reference epoch: J2000.0
    X-Y plane: adopted Earth orbital plane at the reference epoch
               Note: IAU76 obliquity of 84381.448 arcseconds wrt ICRF X-Y plane
    X-axis   : ICRF
    Z-axis   : perpendicular to the X-Y plane in the directional (+ or -) sense
               of Earth's north pole at the reference epoch.

  Symbol meaning:

    JDTDB    Julian Day Number, Barycentric Dynamical Time
      X      X-component of position vector (km)
      Y      Y-component of position vector (km)
      Z      Z-component of position vector (km)
      VX     X-component of velocity vector (km/sec)                           
      VY     Y-component of velocity vector (km/sec)                           
      VZ     Z-component of velocity vector (km/sec)                           

ABERRATIONS AND CORRECTIONS

 Geometric state vectors have NO corrections or aberrations applied.

Computations by ...

    Solar System Dynamics Group, Horizons On-Line Ephemeris System
    4800 Oak Grove Drive, Jet Propulsion Laboratory
    Pasadena, CA  91109   USA

    General site: https://ssd.jpl.nasa.gov/
    Mailing list: https://ssd.jpl.nasa.gov/email_list.html
    System news : https://ssd.jpl.nasa.gov/horizons/news.html
    User Guide  : https://ssd.jpl.nasa.gov/horizons/manual.html
    Connect     : browser        https://ssd.jpl.nasa.gov/horizons/app.html#/x
                  API            https://ssd-api.jpl.nasa.gov/doc/horizons.html
                  command-line   telnet ssd.jpl.nasa.gov 6775
                  e-mail/batch   https://ssd.jpl.nasa.gov/ftp/ssd/hrzn_batch.txt
                  scripts        https://ssd.jpl.nasa.gov/ftp/ssd/SCRIPTS
    Author      : Jon.D.Giorgini@jpl.nasa.gov
*******************************************************************************
